start=new Date('2023-01-26T00:00:00.000Z').valueOf();
sats=[{"SEMIMAJOR_AXIS":"6925.365","LAUNCH_DATE":"2021-05-26","ELEMENT_SET_NO":"999","MEAN_ANOMALY":"289.6631","SITE":"AFETR","APOAPSIS":"548.328","FILE":"3761297","COUNTRY_CODE":"US","GP_ID":"223688594","ARG_OF_PERICENTER":"70.4529","TIME_SYSTEM":"UTC","ECCENTRICITY":"0.00015850","OBJECT_ID":"2021-044BC","OBJECT_TYPE":"PAYLOAD","MEAN_ELEMENT_THEORY":"SGP4","PERIAPSIS":"546.133","CLASSIFICATION_TYPE":"U","EPOCH":"2023-01-25T13:50:07.777824","DECAY_DATE":null,"EPHEMERIS_TYPE":"0","PERIOD":"95.592","MEAN_MOTION_DDOT":"0.0000000000000","MEAN_MOTION":"15.06394557","OBJECT_NAME":"STARLINK-2742","RA_OF_ASC_NODE":"140.3054","CENTER_NAME":"EARTH","RCS_SIZE":"LARGE","REF_FRAME":"TEME","NORAD_CAT_ID":"48688","INCLINATION":"53.0535","TLE_LINE1":"1 48688U 21044BC  23025.57647891  .00001578  00000-0  12483-3 0  9996","REV_AT_EPOCH":"9278","MEAN_MOTION_DOT":"0.00001578","TLE_LINE2":"2 48688  53.0535 140.3054 0001585  70.4529 289.6631 15.06394557 92786","BSTAR":"0.00012483000000"},{"CENTER_NAME":"EARTH","RA_OF_ASC_NODE":"145.2563","OBJECT_NAME":"STARLINK-2617","INCLINATION":"53.0534","NORAD_CAT_ID":"48689","RCS_SIZE":"LARGE","REF_FRAME":"TEME","TLE_LINE1":"1 48689U 21044BD  23025.58154525  .00000044  00000-0  21825-4 0  9993","BSTAR":"0.00002182500000","MEAN_MOTION_DOT":"0.00000044","TLE_LINE2":"2 48689  53.0534 145.2563 0001055  86.3476 273.7634 15.06393720 92715","REV_AT_EPOCH":"9271","SITE":"AFETR","LAUNCH_DATE":"2021-05-26","ELEMENT_SET_NO":"999","MEAN_ANOMALY":"273.7634","SEMIMAJOR_AXIS":"6925.368","OBJECT_ID":"2021-044BD","ECCENTRICITY":"0.00010550","OBJECT_TYPE":"PAYLOAD","GP_ID":"223688846","ARG_OF_PERICENTER":"86.3476","TIME_SYSTEM":"UTC","COUNTRY_CODE":"US","APOAPSIS":"547.963","FILE":"3761297","EPHEMERIS_TYPE":"0","EPOCH":"2023-01-25T13:57:25.509600","DECAY_DATE":null,"CLASSIFICATION_TYPE":"U","PERIAPSIS":"546.502","MEAN_ELEMENT_THEORY":"SGP4","MEAN_MOTION":"15.06393720","MEAN_MOTION_DDOT":"0.0000000000000","PERIOD":"95.593"},{"TLE_LINE1":"1 48690U 21044BE  23025.65434338  .00000659  00000-0  63139-4 0  9992","TLE_LINE2":"2 48690  53.0525 154.9542 0001403  67.8195 292.2942 15.06397402 92584","MEAN_MOTION_DOT":"0.00000659","BSTAR":"0.00006313900000","REV_AT_EPOCH":"9258","RA_OF_ASC_NODE":"154.9542","CENTER_NAME":"EARTH","OBJECT_NAME":"STARLINK-2740","INCLINATION":"53.0525","REF_FRAME":"TEME","RCS_SIZE":"LARGE","NORAD_CAT_ID":"48690","DECAY_DATE":null,"EPOCH":"2023-01-25T15:42:15.268032","EPHEMERIS_TYPE":"0","MEAN_ELEMENT_THEORY":"SGP4","PERIAPSIS":"546.250","CLASSIFICATION_TYPE":"U","MEAN_MOTION":"15.06397402","MEAN_MOTION_DDOT":"0.0000000000000","PERIOD":"95.592","SITE":"AFETR","SEMIMAJOR_AXIS":"6925.357","MEAN_ANOMALY":"292.2942","ELEMENT_SET_NO":"999","LAUNCH_DATE":"2021-05-26","TIME_SYSTEM":"UTC","ARG_OF_PERICENTER":"67.8195","GP_ID":"223716892","OBJECT_TYPE":"PAYLOAD","OBJECT_ID":"2021-044BE","ECCENTRICITY":"0.00014030","FILE":"3761360","APOAPSIS":"548.193","COUNTRY_CODE":"US"},{"NORAD_CAT_ID":"48691","REF_FRAME":"TEME","RCS_SIZE":"LARGE","INCLINATION":"53.0530","OBJECT_NAME":"STARLINK-2750","CENTER_NAME":"EARTH","RA_OF_ASC_NODE":"150.0762","REV_AT_EPOCH":"9265","BSTAR":"0.00006570100000","TLE_LINE2":"2 48691  53.0530 150.0762 0000782  81.3332 278.7746 15.06395806 92650","MEAN_MOTION_DOT":"0.00000697","TLE_LINE1":"1 48691U 21044BF  23025.62715633  .00000697  00000-0  65701-4 0  9999","COUNTRY_CODE":"US","FILE":"3761360","APOAPSIS":"547.768","OBJECT_TYPE":"PAYLOAD","ECCENTRICITY":"0.00007820","OBJECT_ID":"2021-044BF","TIME_SYSTEM":"UTC","GP_ID":"223715640","ARG_OF_PERICENTER":"81.3332","MEAN_ANOMALY":"278.7746","ELEMENT_SET_NO":"999","LAUNCH_DATE":"2021-05-26","SEMIMAJOR_AXIS":"6925.361","SITE":"AFETR","PERIOD":"95.592","MEAN_MOTION":"15.06395806","MEAN_MOTION_DDOT":"0.0000000000000","CLASSIFICATION_TYPE":"U","PERIAPSIS":"546.685","MEAN_ELEMENT_THEORY":"SGP4","EPHEMERIS_TYPE":"0","DECAY_DATE":null,"EPOCH":"2023-01-25T15:03:06.306912"},{"SITE":"AFETR","SEMIMAJOR_AXIS":"6925.366","ELEMENT_SET_NO":"999","LAUNCH_DATE":"2021-05-26","MEAN_ANOMALY":"267.0999","GP_ID":"223688094","ARG_OF_PERICENTER":"93.0133","TIME_SYSTEM":"UTC","OBJECT_ID":"2021-044BG","ECCENTRICITY":"0.00012510","OBJECT_TYPE":"PAYLOAD","APOAPSIS":"548.097","FILE":"3761297","COUNTRY_CODE":"US","EPOCH":"2023-01-25T14:41:53.887200","DECAY_DATE":null,"EPHEMERIS_TYPE":"0","PERIAPSIS":"546.364","MEAN_ELEMENT_THEORY":"SGP4","CLASSIFICATION_TYPE":"U","MEAN_MOTION":"15.06394462","MEAN_MOTION_DDOT":"0.0000000000000","PERIOD":"95.592","RA_OF_ASC_NODE":"150.2699","CENTER_NAME":"EARTH","OBJECT_NAME":"STARLINK-2752","INCLINATION":"53.0534","RCS_SIZE":"LARGE","REF_FRAME":"TEME","NORAD_CAT_ID":"48692","TLE_LINE1":"1 48692U 21044BG  23025.61242925  .00000586  00000-0  58209-4 0  9990","MEAN_MOTION_DOT":"0.00000586","TLE_LINE2":"2 48692  53.0534 150.2699 0001251  93.0133 267.0999 15.06394462 92655","BSTAR":"0.00005820900000","REV_AT_EPOCH":"9265"},{"DECAY_DATE":null,"EPOCH":"2023-01-25T14:53:07.059840","EPHEMERIS_TYPE":"0","PERIAPSIS":"546.466","MEAN_ELEMENT_THEORY":"SGP4","CLASSIFICATION_TYPE":"U","MEAN_MOTION":"15.06399391","MEAN_MOTION_DDOT":"0.0000000000000","PERIOD":"95.592","SITE":"AFETR","SEMIMAJOR_AXIS":"6925.350","MEAN_ANOMALY":"273.7180","LAUNCH_DATE":"2021-05-26","ELEMENT_SET_NO":"999","TIME_SYSTEM":"UTC","ARG_OF_PERICENTER":"86.3932","GP_ID":"223688346","OBJECT_TYPE":"PAYLOAD","ECCENTRICITY":"0.00010820","OBJECT_ID":"2021-044BH","FILE":"3761297","APOAPSIS":"547.965","COUNTRY_CODE":"US","TLE_LINE1":"1 48693U 21044BH  23025.62022060  .00001381  00000-0  11161-3 0  9997","TLE_LINE2":"2 48693  53.0528 155.1031 0001082  86.3932 273.7180 15.06399391 92581","MEAN_MOTION_DOT":"0.00001381","BSTAR":"0.00011161000000","REV_AT_EPOCH":"9258","RA_OF_ASC_NODE":"155.1031","CENTER_NAME":"EARTH","OBJECT_NAME":"STARLINK-2618","INCLINATION":"53.0528","REF_FRAME":"TEME","RCS_SIZE":"LARGE","NORAD_CAT_ID":"48693"},{"RA_OF_ASC_NODE":"159.3522","CENTER_NAME":"EARTH","OBJECT_NAME":"STARLINK-2748","INCLINATION":"53.0523","REF_FRAME":"TEME","RCS_SIZE":"LARGE","NORAD_CAT_ID":"48694","TLE_LINE1":"1 48694U 21044BJ  23025.78747126  .00000440  00000-0  48463-4 0  9993","TLE_LINE2":"2 48694  53.0523 159.3522 0001330  91.6807 268.4334 15.06397121 92530","MEAN_MOTION_DOT":"0.00000440","BSTAR":"0.00004846300000","REV_AT_EPOCH":"9253","SITE":"AFETR","SEMIMAJOR_AXIS":"6925.357","MEAN_ANOMALY":"268.4334","LAUNCH_DATE":"2021-05-26","ELEMENT_SET_NO":"999","TIME_SYSTEM":"UTC","GP_ID":"223716393","ARG_OF_PERICENTER":"91.6807","OBJECT_TYPE":"PAYLOAD","OBJECT_ID":"2021-044BJ","ECCENTRICITY":"0.00013300","FILE":"3761360","APOAPSIS":"548.143","COUNTRY_CODE":"US","DECAY_DATE":null,"EPOCH":"2023-01-25T18:53:57.516864","EPHEMERIS_TYPE":"0","MEAN_ELEMENT_THEORY":"SGP4","PERIAPSIS":"546.301","CLASSIFICATION_TYPE":"U","MEAN_MOTION_DDOT":"0.0000000000000","MEAN_MOTION":"15.06397121","PERIOD":"95.592"},{"PERIOD":"95.592","MEAN_MOTION":"15.06396141","MEAN_MOTION_DDOT":"0.0000000000000","PERIAPSIS":"546.111","MEAN_ELEMENT_THEORY":"SGP4","CLASSIFICATION_TYPE":"U","DECAY_DATE":null,"EPOCH":"2023-01-25T16:16:05.933280","EPHEMERIS_TYPE":"0","FILE":"3761360","APOAPSIS":"548.340","COUNTRY_CODE":"US","TIME_SYSTEM":"UTC","GP_ID":"223715141","ARG_OF_PERICENTER":"89.5795","OBJECT_TYPE":"PAYLOAD","OBJECT_ID":"2021-044BK","ECCENTRICITY":"0.00016090","SEMIMAJOR_AXIS":"6925.360","MEAN_ANOMALY":"270.5378","ELEMENT_SET_NO":"999","LAUNCH_DATE":"2021-05-26","SITE":"AFETR","REV_AT_EPOCH":"9252","TLE_LINE2":"2 48695  53.0536 159.8998 0001609  89.5795 270.5378 15.06396141 92520","MEAN_MOTION_DOT":"0.00000949","BSTAR":"0.00008258100000","TLE_LINE1":"1 48695U 21044BK  23025.67784645  .00000949  00000-0  82581-4 0  9992","REF_FRAME":"TEME","RCS_SIZE":"LARGE","NORAD_CAT_ID":"48695","INCLINATION":"53.0536","OBJECT_NAME":"STARLINK-2616","RA_OF_ASC_NODE":"159.8998","CENTER_NAME":"EARTH"},{"SEMIMAJOR_AXIS":"6925.359","MEAN_ANOMALY":"276.6066","ELEMENT_SET_NO":"999","LAUNCH_DATE":"2021-05-26","SITE":"AFETR","FILE":"3761360","APOAPSIS":"548.051","COUNTRY_CODE":"US","TIME_SYSTEM":"UTC","GP_ID":"223715391","ARG_OF_PERICENTER":"83.5059","OBJECT_TYPE":"PAYLOAD","ECCENTRICITY":"0.00011930","OBJECT_ID":"2021-044BL","MEAN_ELEMENT_THEORY":"SGP4","PERIAPSIS":"546.398","CLASSIFICATION_TYPE":"U","DECAY_DATE":null,"EPOCH":"2023-01-25T16:02:09.772224","EPHEMERIS_TYPE":"0","PERIOD":"95.592","MEAN_MOTION":"15.06396489","MEAN_MOTION_DDOT":"0.0000000000000","OBJECT_NAME":"STARLINK-2753","RA_OF_ASC_NODE":"164.9404","CENTER_NAME":"EARTH","REF_FRAME":"TEME","RCS_SIZE":"LARGE","NORAD_CAT_ID":"48696","INCLINATION":"53.0540","TLE_LINE1":"1 48696U 21044BL  23025.66816866  .00000928  00000-0  81177-4 0  9990","REV_AT_EPOCH":"9245","TLE_LINE2":"2 48696  53.0540 164.9404 0001193  83.5059 276.6066 15.06396489 92458","MEAN_MOTION_DOT":"0.00000928","BSTAR":"0.00008117700000"},{"TLE_LINE1":"1 48697U 21044BM  23025.69765318  .00001112  00000-0  93534-4 0  9995","BSTAR":"0.00009353400000","MEAN_MOTION_DOT":"0.00001112","TLE_LINE2":"2 48697  53.0540 164.7705 0001279  98.5894 261.5240 15.06397887 92459","REV_AT_EPOCH":"9245","CENTER_NAME":"EARTH","RA_OF_ASC_NODE":"164.7705","OBJECT_NAME":"STARLINK-2715","INCLINATION":"53.0540","NORAD_CAT_ID":"48697","RCS_SIZE":"LARGE","REF_FRAME":"TEME","EPHEMERIS_TYPE":"0","EPOCH":"2023-01-25T16:44:37.234752","DECAY_DATE":null,"CLASSIFICATION_TYPE":"U","PERIAPSIS":"546.334","MEAN_ELEMENT_THEORY":"SGP4","MEAN_MOTION_DDOT":"0.0000000000000","MEAN_MOTION":"15.06397887","PERIOD":"95.592","SITE":"AFETR","LAUNCH_DATE":"2021-05-26","ELEMENT_SET_NO":"999","MEAN_ANOMALY":"261.5240","SEMIMAJOR_AXIS":"6925.355","OBJECT_ID":"2021-044BM","ECCENTRICITY":"0.00012790","OBJECT_TYPE":"PAYLOAD","ARG_OF_PERICENTER":"98.5894","GP_ID":"223716143","TIME_SYSTEM":"UTC","COUNTRY_CODE":"US","APOAPSIS":"548.106","FILE":"3761360"}];
